TEVEL2-8                
1 63239U 25052AF  26068.66815442  .00019130  00000+0  69304-3 0  9993
2 63239  97.4055 324.2923 0008031 124.9191 235.2804 15.28392908 54807
STARLINK-36058          
1 66591U 25270D   26068.02564942  .00034368  00000+0  12510-2 0  9991
2 66591  43.0067  59.9879 0002099 168.5594 191.5306 15.27622806 17602
